{
  "type": "FeatureCollection",
  "features": [
    {
      "type": "Feature",
      "properties": {
        "norad_id": 28054,
        "name": "DMSP 5D-3 F16 (USA 172)",
        "group": "weather",
        "lat": -74.32421810499676,
        "lon": 52.36158247293867,
        "alt_km": 847.0505165229524,
        "timestamp": "2025-12-26T09:30:53.269747+00:00",
        "meta_object_name": "DMSP 5D-3 F16 (USA 172)",
        "meta_object_id": "2003-048A",
        "meta_epoch": "2025-12-26T03:28:35.160096",
        "meta_mean_motion": 14.14428795,
        "meta_eccentricity": 0.0006244,
        "meta_inclination": 99.0038,
        "meta_ra_of_asc_node": 17.7067,
        "meta_arg_of_pericenter": 277.7422,
        "meta_mean_anomaly": 164.7472,
        "meta_ephemeris_type": 0,
        "meta_classification_type": "U",
        "meta_norad_cat_id": 28054,
        "meta_element_set_no": 999,
        "meta_rev_at_epoch": 14502,
        "meta_bstar": 7.8174e-05,
        "meta_mean_motion_dot": 1.04e-06,
        "meta_mean_motion_ddot": 0,
        "tle_line1": "1 28054U 03048A   25360.14485139  .00000104  00000+0  78174-4 0  9990",
        "tle_line2": "2 28054  99.0038  17.7067 0006244 277.7422 164.7472 14.14428795145023"
      },
      "geometry": {
        "type": "Point",
        "coordinates": [
          52.36158247293867,
          -74.32421810499676
        ]
      }
    },
    {
      "type": "Feature",
      "properties": {
        "norad_id": 28912,
        "name": "METEOSAT-9 (MSG-2)",
        "group": "weather",
        "lat": -6.462985287384398,
        "lon": -78.36846232944518,
        "alt_km": 35616.890243506525,
        "timestamp": "2025-12-26T09:30:53.269797+00:00",
        "meta_object_name": "METEOSAT-9 (MSG-2)",
        "meta_object_id": "2005-049B",
        "meta_epoch": "2025-12-24T18:27:10.310976",
        "meta_mean_motion": 1.00268275,
        "meta_eccentricity": 0.00719695,
        "meta_inclination": 8.9553,
        "meta_ra_of_asc_node": 55.846,
        "meta_arg_of_pericenter": 282.2974,
        "meta_mean_anomaly": 77.0088,
        "meta_ephemeris_type": 0,
        "meta_classification_type": "U",
        "meta_norad_cat_id": 28912,
        "meta_element_set_no": 999,
        "meta_rev_at_epoch": 524,
        "meta_bstar": 0,
        "meta_mean_motion_dot": 1.45e-06,
        "meta_mean_motion_ddot": 0,
        "tle_line1": "1 28912U 05049B   25358.76886934  .00000145  00000+0  00000+0 0  9992",
        "tle_line2": "2 28912   8.9553  55.8460 0071969 282.2974  77.0088  1.00268275  5240"
      },
      "geometry": {
        "type": "Point",
        "coordinates": [
          -78.36846232944518,
          -6.462985287384398
        ]
      }
    },
    {
      "type": "Feature",
      "properties": {
        "norad_id": 29522,
        "name": "DMSP 5D-3 F17 (USA 191)",
        "group": "weather",
        "lat": -65.91622485327363,
        "lon": 165.37231271355358,
        "alt_km": 846.4974997453255,
        "timestamp": "2025-12-26T09:30:53.269816+00:00",
        "meta_object_name": "DMSP 5D-3 F17 (USA 191)",
        "meta_object_id": "2006-050A",
        "meta_epoch": "2025-12-26T03:15:28.433664",
        "meta_mean_motion": 14.14925128,
        "meta_eccentricity": 0.0009993,
        "meta_inclination": 98.7393,
        "meta_ra_of_asc_node": 5.2459,
        "meta_arg_of_pericenter": 185.0637,
        "meta_mean_anomaly": 175.0437,
        "meta_ephemeris_type": 0,
        "meta_classification_type": "U",
        "meta_norad_cat_id": 29522,
        "meta_element_set_no": 999,
        "meta_rev_at_epoch": 98794,
        "meta_bstar": 0.00010284,
        "meta_mean_motion_dot": 1.56e-06,
        "meta_mean_motion_ddot": 0,
        "tle_line1": "1 29522U 06050A   25360.13574576  .00000156  00000+0  10284-3 0  9994",
        "tle_line2": "2 29522  98.7393   5.2459 0009993 185.0637 175.0437 14.14925128987947"
      },
      "geometry": {
        "type": "Point",
        "coordinates": [
          165.37231271355358,
          -65.91622485327363
        ]
      }
    },
    {
      "type": "Feature",
      "properties": {
        "norad_id": 32958,
        "name": "FENGYUN 3A",
        "group": "weather",
        "lat": -6.784071082302764,
        "lon": 118.59650496802945,
        "alt_km": 829.735957338974,
        "timestamp": "2025-12-26T09:30:53.269830+00:00",
        "meta_object_name": "FENGYUN 3A",
        "meta_object_id": "2008-026A",
        "meta_epoch": "2025-12-25T20:47:43.211904",
        "meta_mean_motion": 14.19518678,
        "meta_eccentricity": 0.00076064,
        "meta_inclination": 98.6714,
        "meta_ra_of_asc_node": 299.1179,
        "meta_arg_of_pericenter": 267.7947,
        "meta_mean_anomaly": 92.2359,
        "meta_ephemeris_type": 0,
        "meta_classification_type": "U",
        "meta_norad_cat_id": 32958,
        "meta_element_set_no": 999,
        "meta_rev_at_epoch": 91081,
        "meta_bstar": 8.5573603e-05,
        "meta_mean_motion_dot": 1.37e-06,
        "meta_mean_motion_ddot": 0,
        "tle_line1": "1 32958U 08026A   25359.86647236  .00000137  00000+0  85574-4 0  9992",
        "tle_line2": "2 32958  98.6714 299.1179 0007606 267.7947  92.2359 14.19518678910812"
      },
      "geometry": {
        "type": "Point",
        "coordinates": [
          118.59650496802945,
          -6.784071082302764
        ]
      }
    },
    {
      "type": "Feature",
      "properties": {
        "norad_id": 35491,
        "name": "GOES 14",
        "group": "weather",
        "lat": 0.7143735758787269,
        "lon": 119.49045997616669,
        "alt_km": 35837.944656749874,
        "timestamp": "2025-12-26T09:30:53.269844+00:00",
        "meta_object_name": "GOES 14",
        "meta_object_id": "2009-033A",
        "meta_epoch": "2025-12-26T04:39:38.472192",
        "meta_mean_motion": 1.00097065,
        "meta_eccentricity": 7.35e-05,
        "meta_inclination": 1.2368,
        "meta_ra_of_asc_node": 85.2657,
        "meta_arg_of_pericenter": 193.3176,
        "meta_mean_anomaly": 128.039,
        "meta_ephemeris_type": 0,
        "meta_classification_type": "U",
        "meta_norad_cat_id": 35491,
        "meta_element_set_no": 999,
        "meta_rev_at_epoch": 485,
        "meta_bstar": 0,
        "meta_mean_motion_dot": 4.1e-07,
        "meta_mean_motion_ddot": 0,
        "tle_line1": "1 35491U 09033A   25360.19419528  .00000041  00000+0  00000+0 0  9995",
        "tle_line2": "2 35491   1.2368  85.2657 0000735 193.3176 128.0390  1.00097065  4850"
      },
      "geometry": {
        "type": "Point",
        "coordinates": [
          119.49045997616669,
          0.7143735758787269
        ]
      }
    },
    {
      "type": "Feature",
      "properties": {
        "norad_id": 35951,
        "name": "DMSP 5D-3 F18 (USA 210)",
        "group": "weather",
        "lat": 70.21849746799332,
        "lon": -177.48878783586156,
        "alt_km": 834.9284708128343,
        "timestamp": "2025-12-26T09:30:53.269855+00:00",
        "meta_object_name": "DMSP 5D-3 F18 (USA 210)",
        "meta_object_id": "2009-057A",
        "meta_epoch": "2025-12-26T02:13:08.847264",
        "meta_mean_motion": 14.14777898,
        "meta_eccentricity": 0.001166,
        "meta_inclination": 98.8851,
        "meta_ra_of_asc_node": 336.4274,
        "meta_arg_of_pericenter": 27.4197,
        "meta_mean_anomaly": 332.7589,
        "meta_ephemeris_type": 0,
        "meta_classification_type": "U",
        "meta_norad_cat_id": 35951,
        "meta_element_set_no": 999,
        "meta_rev_at_epoch": 83511,
        "meta_bstar": 0.00016337,
        "meta_mean_motion_dot": 2.71e-06,
        "meta_mean_motion_ddot": 0,
        "tle_line1": "1 35951U 09057A   25360.09246351  .00000271  00000+0  16337-3 0  9992",
        "tle_line2": "2 35951  98.8851 336.4274 0011660  27.4197 332.7589 14.14777898835118"
      },
      "geometry": {
        "type": "Point",
        "coordinates": [
          -177.48878783586156,
          70.21849746799332
        ]
      }
    },
    {
      "type": "Feature",
      "properties": {
        "norad_id": 36411,
        "name": "EWS-G2 (GOES 15)",
        "group": "weather",
        "lat": -0.48077777027351043,
        "lon": -60.760604350756005,
        "alt_km": 35766.46659602764,
        "timestamp": "2025-12-26T09:30:53.269868+00:00",
        "meta_object_name": "EWS-G2 (GOES 15)",
        "meta_object_id": "2010-008A",
        "meta_epoch": "2025-12-26T01:20:32.726112",
        "meta_mean_motion": 1.00270948,
        "meta_eccentricity": 0.0005629,
        "meta_inclination": 0.8445,
        "meta_ra_of_asc_node": 86.073,
        "meta_arg_of_pericenter": 179.6685,
        "meta_mean_anomaly": 270.5509,
        "meta_ephemeris_type": 0,
        "meta_classification_type": "U",
        "meta_norad_cat_id": 36411,
        "meta_element_set_no": 999,
        "meta_rev_at_epoch": 5790,
        "meta_bstar": 0,
        "meta_mean_motion_dot": 6e-07,
        "meta_mean_motion_ddot": 0,
        "tle_line1": "1 36411U 10008A   25360.05593433  .00000060  00000+0  00000+0 0  9996",
        "tle_line2": "2 36411   0.8445  86.0730 0005629 179.6685 270.5509  1.00270948 57906"
      },
      "geometry": {
        "type": "Point",
        "coordinates": [
          -60.760604350756005,
          -0.48077777027351043
        ]
      }
    }
  ]
}